start=new Date('2022-01-12T00:00:00.000Z').valueOf();
sats=[{"OBJECT_ID":"2020-025AM","OBJECT_TYPE":"PAYLOAD","FILE":"3269657","DECAY_DATE":null,"MEAN_MOTION_DDOT":"0.0000000000000","RCS_SIZE":"LARGE","TLE_LINE1":"1 45566U 20025AM  22011.53105079 -.00000179  00000-0  68881-5 0  9995","PERIOD":"95.592","EPHEMERIS_TYPE":"0","REV_AT_EPOCH":"9654","NORAD_CAT_ID":"45566","EPOCH":"2022-01-11T12:44:42.788256","LAUNCH_DATE":"2020-04-22","BSTAR":"0.00000688810000","TLE_LINE2":"2 45566  53.0553  61.9066 0001433  83.6081 276.5071 15.06398320 96543","ELEMENT_SET_NO":"999","CLASSIFICATION_TYPE":"U","MEAN_ANOMALY":"276.5071","CENTER_NAME":"EARTH","SITE":"AFETR","INCLINATION":"53.0553","MEAN_ELEMENT_THEORY":"SGP4","ARG_OF_PERICENTER":"83.6081","GP_ID":"193661202","MEAN_MOTION_DOT":"-0.00000179","COUNTRY_CODE":"US","REF_FRAME":"TEME","ECCENTRICITY":"0.00014330","SEMIMAJOR_AXIS":"6925.354","TIME_SYSTEM":"UTC","OBJECT_NAME":"STARLINK-1358","PERIAPSIS":"546.226","RA_OF_ASC_NODE":"61.9066","APOAPSIS":"548.211","MEAN_MOTION":"15.06398320"},{"LAUNCH_DATE":"2020-04-22","EPOCH":"2022-01-11T13:00:38.500128","BSTAR":"0.00001530400000","TLE_LINE2":"2 45567  53.0547  61.8446 0001419  86.2245 273.8906 15.06392115 96557","CENTER_NAME":"EARTH","SITE":"AFETR","CLASSIFICATION_TYPE":"U","ELEMENT_SET_NO":"999","MEAN_ANOMALY":"273.8906","FILE":"3269657","OBJECT_ID":"2020-025AN","OBJECT_TYPE":"PAYLOAD","MEAN_MOTION_DDOT":"0.0000000000000","DECAY_DATE":null,"TLE_LINE1":"1 45567U 20025AN  22011.54211227 -.00000054  00000-0  15304-4 0  9993","RCS_SIZE":"LARGE","EPHEMERIS_TYPE":"0","NORAD_CAT_ID":"45567","REV_AT_EPOCH":"9655","PERIOD":"95.593","SEMIMAJOR_AXIS":"6925.373","PERIAPSIS":"546.255","OBJECT_NAME":"STARLINK-1361","TIME_SYSTEM":"UTC","APOAPSIS":"548.220","RA_OF_ASC_NODE":"61.8446","MEAN_MOTION":"15.06392115","MEAN_ELEMENT_THEORY":"SGP4","ARG_OF_PERICENTER":"86.2245","INCLINATION":"53.0547","GP_ID":"193660450","COUNTRY_CODE":"US","MEAN_MOTION_DOT":"-0.00000054","ECCENTRICITY":"0.00014190","REF_FRAME":"TEME"},{"GP_ID":"193660201","INCLINATION":"53.0553","MEAN_ELEMENT_THEORY":"SGP4","ARG_OF_PERICENTER":"81.8736","REF_FRAME":"TEME","ECCENTRICITY":"0.00013870","COUNTRY_CODE":"US","MEAN_MOTION_DOT":"0.00000119","TIME_SYSTEM":"UTC","OBJECT_NAME":"STARLINK-1363","PERIAPSIS":"546.252","SEMIMAJOR_AXIS":"6925.347","RA_OF_ASC_NODE":"62.1877","APOAPSIS":"548.173","MEAN_MOTION":"15.06400447","OBJECT_ID":"2020-025AP","OBJECT_TYPE":"PAYLOAD","FILE":"3269657","PERIOD":"95.592","EPHEMERIS_TYPE":"0","NORAD_CAT_ID":"45568","REV_AT_EPOCH":"9653","DECAY_DATE":null,"MEAN_MOTION_DDOT":"0.0000000000000","RCS_SIZE":"LARGE","TLE_LINE1":"1 45568U 20025AP  22011.46744943  .00000119  00000-0  26862-4 0  9993","BSTAR":"0.00002686200000","TLE_LINE2":"2 45568  53.0553  62.1877 0001387  81.8736 278.2410 15.06400447 96532","EPOCH":"2022-01-11T11:13:07.630752","LAUNCH_DATE":"2020-04-22","ELEMENT_SET_NO":"999","CLASSIFICATION_TYPE":"U","MEAN_ANOMALY":"278.2410","CENTER_NAME":"EARTH","SITE":"AFETR"},{"APOAPSIS":"548.109","MEAN_MOTION":"15.06405472","RA_OF_ASC_NODE":"62.4293","SEMIMAJOR_AXIS":"6925.332","TIME_SYSTEM":"UTC","PERIAPSIS":"546.285","OBJECT_NAME":"STARLINK-1366","MEAN_MOTION_DOT":"0.00000974","COUNTRY_CODE":"US","REF_FRAME":"TEME","ECCENTRICITY":"0.00013170","INCLINATION":"53.0551","MEAN_ELEMENT_THEORY":"SGP4","ARG_OF_PERICENTER":"75.4594","GP_ID":"193661452","ELEMENT_SET_NO":"999","CLASSIFICATION_TYPE":"U","MEAN_ANOMALY":"284.6541","CENTER_NAME":"EARTH","SITE":"AFETR","EPOCH":"2022-01-11T09:54:52.269408","LAUNCH_DATE":"2020-04-22","BSTAR":"0.00008427900000","TLE_LINE2":"2 45569  53.0551  62.4293 0001317  75.4594 284.6541 15.06405472 96528","DECAY_DATE":null,"MEAN_MOTION_DDOT":"0.0000000000000","RCS_SIZE":"LARGE","TLE_LINE1":"1 45569U 20025AQ  22011.41310497  .00000974  00000-0  84279-4 0  9997","PERIOD":"95.592","EPHEMERIS_TYPE":"0","NORAD_CAT_ID":"45569","REV_AT_EPOCH":"9652","OBJECT_ID":"2020-025AQ","OBJECT_TYPE":"PAYLOAD","FILE":"3269657"},{"TIME_SYSTEM":"UTC","OBJECT_NAME":"STARLINK-1376","PERIAPSIS":"546.329","SEMIMAJOR_AXIS":"6925.349","APOAPSIS":"548.099","MEAN_MOTION":"15.06399839","RA_OF_ASC_NODE":"61.5653","GP_ID":"193691505","INCLINATION":"53.0544","MEAN_ELEMENT_THEORY":"SGP4","ARG_OF_PERICENTER":"83.5176","REF_FRAME":"TEME","ECCENTRICITY":"0.00012780","MEAN_MOTION_DOT":"-0.00000710","COUNTRY_CODE":"US","BSTAR":"-0.00002879500000","TLE_LINE2":"2 45570  53.0544  61.5653 0001278  83.5176 276.5958 15.06399839 96558","EPOCH":"2022-01-11T14:30:52.485696","LAUNCH_DATE":"2020-04-22","ELEMENT_SET_NO":"999","CLASSIFICATION_TYPE":"U","MEAN_ANOMALY":"276.5958","SITE":"AFETR","CENTER_NAME":"EARTH","OBJECT_ID":"2020-025AR","OBJECT_TYPE":"PAYLOAD","FILE":"3269987","PERIOD":"95.592","EPHEMERIS_TYPE":"0","REV_AT_EPOCH":"9655","NORAD_CAT_ID":"45570","DECAY_DATE":null,"MEAN_MOTION_DDOT":"0.0000000000000","RCS_SIZE":"LARGE","TLE_LINE1":"1 45570U 20025AR  22011.60477414 -.00000710  00000-0 -28795-4 0  9994"},{"SITE":"AFETR","CENTER_NAME":"EARTH","ELEMENT_SET_NO":"999","CLASSIFICATION_TYPE":"U","MEAN_ANOMALY":"282.3052","LAUNCH_DATE":"2020-04-22","EPOCH":"2022-01-11T10:06:48.656736","BSTAR":"0.00002951300000","TLE_LINE2":"2 45571  53.0557  52.4021 0001553  77.8111 282.3052 15.06394516 96076","MEAN_MOTION_DDOT":"0.0000000000000","DECAY_DATE":null,"RCS_SIZE":"LARGE","TLE_LINE1":"1 45571U 20025AS  22011.42139649  .00000158  00000-0  29513-4 0  9993","EPHEMERIS_TYPE":"0","REV_AT_EPOCH":"9607","NORAD_CAT_ID":"45571","PERIOD":"95.592","FILE":"3269749","OBJECT_ID":"2020-025AS","OBJECT_TYPE":"PAYLOAD","MEAN_MOTION":"15.06394516","APOAPSIS":"548.306","RA_OF_ASC_NODE":"52.4021","SEMIMAJOR_AXIS":"6925.365","OBJECT_NAME":"STARLINK-1261","PERIAPSIS":"546.155","TIME_SYSTEM":"UTC","MEAN_MOTION_DOT":"0.00000158","COUNTRY_CODE":"US","ECCENTRICITY":"0.00015530","REF_FRAME":"TEME","MEAN_ELEMENT_THEORY":"SGP4","ARG_OF_PERICENTER":"77.8111","INCLINATION":"53.0557","GP_ID":"193666207"},{"APOAPSIS":"548.221","RA_OF_ASC_NODE":"52.4356","MEAN_MOTION":"15.06394751","TIME_SYSTEM":"UTC","OBJECT_NAME":"STARLINK-1320","PERIAPSIS":"546.238","SEMIMAJOR_AXIS":"6925.365","REF_FRAME":"TEME","ECCENTRICITY":"0.00014320","MEAN_MOTION_DOT":"0.00001988","COUNTRY_CODE":"US","GP_ID":"193660701","INCLINATION":"53.0558","ARG_OF_PERICENTER":"81.6383","MEAN_ELEMENT_THEORY":"SGP4","MEAN_ANOMALY":"278.4768","CLASSIFICATION_TYPE":"U","ELEMENT_SET_NO":"999","CENTER_NAME":"EARTH","SITE":"AFETR","TLE_LINE2":"2 45572  53.0558  52.4356 0001432  81.6383 278.4768 15.06394751 96676","BSTAR":"0.00015235000000","EPOCH":"2022-01-11T09:56:11.519808","LAUNCH_DATE":"2020-04-22","PERIOD":"95.592","REV_AT_EPOCH":"9667","NORAD_CAT_ID":"45572","EPHEMERIS_TYPE":"0","TLE_LINE1":"1 45572U 20025AT  22011.41402222  .00001988  00000-0  15235-3 0  9990","RCS_SIZE":"LARGE","DECAY_DATE":null,"MEAN_MOTION_DDOT":"0.0000000000000","OBJECT_TYPE":"PAYLOAD","OBJECT_ID":"2020-025AT","FILE":"3269657"},{"MEAN_ELEMENT_THEORY":"SGP4","ARG_OF_PERICENTER":"75.0914","INCLINATION":"53.0563","GP_ID":"193690749","COUNTRY_CODE":"US","MEAN_MOTION_DOT":"-0.00001389","ECCENTRICITY":"0.00013910","REF_FRAME":"TEME","SEMIMAJOR_AXIS":"6925.359","PERIAPSIS":"546.261","OBJECT_NAME":"STARLINK-1321","TIME_SYSTEM":"UTC","MEAN_MOTION":"15.06396497","APOAPSIS":"548.188","RA_OF_ASC_NODE":"50.7399","FILE":"3269987","OBJECT_ID":"2020-025AU","OBJECT_TYPE":"PAYLOAD","MEAN_MOTION_DDOT":"0.0000000000000","DECAY_DATE":null,"RCS_SIZE":"LARGE","TLE_LINE1":"1 45573U 20025AU  22011.78999002 -.00001389  00000-0 -74357-4 0  9996","EPHEMERIS_TYPE":"0","NORAD_CAT_ID":"45573","REV_AT_EPOCH":"9642","PERIOD":"95.592","LAUNCH_DATE":"2020-04-22","EPOCH":"2022-01-11T18:57:35.137728","BSTAR":"-0.00007435700000","TLE_LINE2":"2 45573  53.0563  50.7399 0001391  75.0914 285.0229 15.06396497 96420","CENTER_NAME":"EARTH","SITE":"AFETR","ELEMENT_SET_NO":"999","CLASSIFICATION_TYPE":"U","MEAN_ANOMALY":"285.0229"},{"TIME_SYSTEM":"UTC","PERIAPSIS":"546.163","OBJECT_NAME":"STARLINK-1324","SEMIMAJOR_AXIS":"6925.372","APOAPSIS":"548.310","RA_OF_ASC_NODE":"52.1179","MEAN_MOTION":"15.06392469","GP_ID":"193661203","INCLINATION":"53.0564","ARG_OF_PERICENTER":"74.3213","MEAN_ELEMENT_THEORY":"SGP4","REF_FRAME":"TEME","ECCENTRICITY":"0.00015500","COUNTRY_CODE":"US","MEAN_MOTION_DOT":"-0.00000052","TLE_LINE2":"2 45574  53.0564  52.1179 0001550  74.3213 285.7947 15.06392469 96693","BSTAR":"0.00001539600000","EPOCH":"2022-01-11T11:37:02.689824","LAUNCH_DATE":"2020-04-22","MEAN_ANOMALY":"285.7947","ELEMENT_SET_NO":"999","CLASSIFICATION_TYPE":"U","SITE":"AFETR","CENTER_NAME":"EARTH","OBJECT_TYPE":"PAYLOAD","OBJECT_ID":"2020-025AV","FILE":"3269657","PERIOD":"95.593","NORAD_CAT_ID":"45574","REV_AT_EPOCH":"9669","EPHEMERIS_TYPE":"0","TLE_LINE1":"1 45574U 20025AV  22011.48405891 -.00000052  00000-0  15396-4 0  9995","RCS_SIZE":"LARGE","DECAY_DATE":null,"MEAN_MOTION_DDOT":"0.0000000000000"},{"PERIAPSIS":"537.420","OBJECT_NAME":"STARLINK-1326","TIME_SYSTEM":"UTC","SEMIMAJOR_AXIS":"6916.554","RA_OF_ASC_NODE":"45.6306","APOAPSIS":"539.419","MEAN_MOTION":"15.09273887","GP_ID":"193691250","ARG_OF_PERICENTER":"81.7151","MEAN_ELEMENT_THEORY":"SGP4","INCLINATION":"53.0020","ECCENTRICITY":"0.00014450","REF_FRAME":"TEME","COUNTRY_CODE":"US","MEAN_MOTION_DOT":"0.00005455","TLE_LINE2":"2 45575  53.0020  45.6306 0001445  81.7151 278.4002 15.09273887 96782","BSTAR":"0.00035636000000","LAUNCH_DATE":"2020-04-22","EPOCH":"2022-01-11T18:53:04.599456","CENTER_NAME":"EARTH","SITE":"AFETR","MEAN_ANOMALY":"278.4002","CLASSIFICATION_TYPE":"U","ELEMENT_SET_NO":"999","FILE":"3269987","OBJECT_TYPE":"PAYLOAD","OBJECT_ID":"2020-025AW","REV_AT_EPOCH":"9678","NORAD_CAT_ID":"45575","EPHEMERIS_TYPE":"0","PERIOD":"95.410","TLE_LINE1":"1 45575U 20025AW  22011.78685879  .00005455  00000-0  35636-3 0  9994","RCS_SIZE":"LARGE","DECAY_DATE":null,"MEAN_MOTION_DDOT":"0.0000000000000"}];
